NORAD_CAT_ID,OBJECT_NAME,OBJECT_TYPE,EPOCH,MEAN_MOTION,ECCENTRICITY,INCLINATION,RA_OF_ASC_NODE,ARG_OF_PERICENTER,MEAN_ANOMALY,BSTAR,MEAN_MOTION_DOT,MEAN_MOTION_DDOT,TLE_LINE0,TLE_LINE1,TLE_LINE2,SEMIMAJOR_AXIS,PERIOD,APOGEE,PERIGEE,DECAYED
55633.0,STARLINK-5498,PAYLOAD,2023-09-12 12:27:48,14.98335588,0.0003019,70.0014,336.7839,269.5962,90.4851,4.0758e-05,3.93e-06,0.0,0 STARLINK-5498,1 55633U 23021F   23255.51930937  .00000393  00000-0  40758-4 0  9997,2 55633  70.0014 336.7839 0003019 269.5962  90.4851 14.98335588 32115,6950.176,96.107,574.139,569.942,0.0
55633.0,STARLINK-5498,PAYLOAD,2023-09-12 15:40:04,14.98339462,0.0002974,70.0014,336.4476,270.0147,90.0671,6.9526e-05,7.37e-06,0.0,0 STARLINK-5498,1 55633U 23021F   23255.65282496  .00000737  00000-0  69526-4 0  9998,2 55633  70.0014 336.4476 0002974 270.0147  90.0671 14.98339462 32133,6950.164,96.106,574.096,569.962,0.0
55633.0,STARLINK-5498,PAYLOAD,2023-09-13 09:17:32,14.98333499,0.0002565,70.0016,334.5959,262.5843,97.5025,0.00015191,1.72e-05,0.0,0 STARLINK-5498,1 55633U 23021F   23256.38718431  .00001720  00000-0  15191-3 0  9993,2 55633  70.0016 334.5959 0002565 262.5843  97.5025 14.98333499 31942,6950.182,96.107,573.83,570.264,0.0
55633.0,STARLINK-5498,PAYLOAD,2023-09-13 12:29:48,14.98335454,0.0002614,70.0017,334.2585,267.2738,92.8122,0.00015204,1.722e-05,0.0,0 STARLINK-5498,1 55633U 23021F   23256.52070265  .00001722  00000-0  15204-3 0  9992,2 55633  70.0017 334.2585 0002614 267.2738  92.8122 14.98335454 32260,6950.176,96.107,573.858,570.224,0.0
55633.0,STARLINK-5498,PAYLOAD,2023-09-13 15:42:04,14.98338553,0.0002638,70.0017,333.9221,269.0367,91.049,0.00017312,1.974e-05,0.0,0 STARLINK-5498,1 55633U 23021F   23256.65421971  .00001974  00000-0  17312-3 0  9991,2 55633  70.0017 333.9221 0002638 269.0367  91.0490 14.98338553 32281,6950.166,96.106,573.865,570.198,0.0
55633.0,STARLINK-5498,PAYLOAD,2023-09-14 09:19:35,14.98316071,0.0002561,70.0032,332.0747,247.3996,112.6892,-0.00010511,-1.346e-05,0.0,0 STARLINK-5498,1 55633U 23021F   23257.38860180 -.00001346  00000-0 -10511-3 0  9990,2 55633  70.0032 332.0747 0002561 247.3996 112.6892 14.98316071 32099,6950.236,96.108,573.881,570.321,0.0
55633.0,STARLINK-5498,PAYLOAD,2023-09-14 12:31:51,14.98311997,0.000267,70.002,331.7357,256.6322,103.4539,-0.00019432,-2.41e-05,0.0,0 STARLINK-5498,1 55633U 23021F   23257.52212783 -.00002410  00000-0 -19432-3 0  9990,2 55633  70.0020 331.7357 0002670 256.6322 103.4539 14.98311997 32410,6950.249,96.108,573.969,570.258,0.0
55633.0,STARLINK-5498,PAYLOAD,2023-09-14 14:08:00,14.98310972,0.000266,70.0019,331.5673,257.2129,102.8733,-0.0002034,-2.518e-05,0.0,0 STARLINK-5498,1 55633U 23021F   23257.58888948 -.00002518  00000-0 -20340-3 0  9997,2 55633  70.0019 331.5673 0002660 257.2129 102.8733 14.98310972 32127,6950.252,96.108,573.966,570.268,0.0
55633.0,STARLINK-5498,PAYLOAD,2023-09-14 22:08:40,14.98317503,0.000282,70.0013,330.7258,264.0295,96.0542,-0.00012191,-1.547e-05,0.0,0 STARLINK-5498,1 55633U 23021F   23257.92268587 -.00001547  00000-0 -12191-3 0  9992,2 55633  70.0013 330.7258 0002820 264.0295  96.0542 14.98317503 32173,6950.232,96.108,574.057,570.137,0.0
55633.0,STARLINK-5498,PAYLOAD,2023-09-15 09:21:36,14.98327311,0.0003163,70.0003,329.5451,266.7711,93.3087,-6.5658e-05,-8.76e-06,0.0,0 STARLINK-5498,1 55633U 23021F   23258.39000043 -.00000876  00000-0 -65658-4 0  9996,2 55633  70.0003 329.5451 0003163 266.7711  93.3087 14.98327311 32246,6950.201,96.107,574.265,569.868,0.0
55633.0,STARLINK-5498,PAYLOAD,2023-09-15 12:33:52,14.9832787,0.0003165,70.0004,329.2091,266.0498,94.03,-3.0908e-05,-4.62e-06,0.0,0 STARLINK-5498,1 55633U 23021F   23258.52351950 -.00000462  00000-0 -30908-4 0  9998,2 55633  70.0004 329.2091 0003165 266.0498  94.0300 14.98327870 32562,6950.199,96.107,574.264,569.865,0.0
55633.0,STARLINK-5498,PAYLOAD,2023-09-16 09:23:36,14.98327601,0.0003218,70.0002,327.0205,262.5306,97.5487,0.00041948,4.915e-05,0.0,0 STARLINK-5498,1 55633U 23021F   23259.39139484  .00004915  00000-0  41948-3 0  9990,2 55633  70.0002 327.0205 0003218 262.5306  97.5487 14.98327601 32398,6950.2,96.107,574.302,569.829,0.0
55633.0,STARLINK-5498,PAYLOAD,2023-09-16 12:35:52,14.98332845,0.0003254,70.0,326.6837,262.8312,97.2477,0.00041576,4.872e-05,0.0,0 STARLINK-5498,1 55633U 23021F   23259.52491288  .00004872  00000-0  41576-3 0  9997,2 55633  70.0000 326.6837 0003254 262.8312  97.2477 14.98332845 32710,6950.184,96.107,574.311,569.788,0.0
55633.0,STARLINK-5498,PAYLOAD,2023-09-17 09:25:37,14.98338101,0.0003191,70.0,324.4943,265.2369,94.8425,0.00027007,3.132e-05,0.0,0 STARLINK-5498,1 55633U 23021F   23260.39279418  .00003132  00000-0  27007-3 0  9994,2 55633  70.0000 324.4943 0003191 265.2369  94.8425 14.98338101 32541,6950.168,96.106,574.251,569.815,0.0
55633.0,STARLINK-5498,PAYLOAD,2023-09-17 12:37:53,14.98343493,0.0003208,70.0011,324.1583,266.428,93.6512,0.0002705,3.137e-05,0.0,0 STARLINK-5498,1 55633U 23021F   23260.52631085  .00003137  00000-0  27050-3 0  9994,2 55633  70.0011 324.1583 0003208 266.4280  93.6512 14.98343493 32863,6950.151,96.106,574.246,569.787,0.0
55633.0,STARLINK-5498,PAYLOAD,2023-09-18 09:27:37,14.98340547,0.000305,70.0005,321.9702,266.781,93.3,1.7544e-05,1.16e-06,0.0,0 STARLINK-5498,1 55633U 23021F   23261.39418898  .00000116  00000-0  17544-4 0  9997,2 55633  70.0005 321.9702 0003050 266.7810  93.3000 14.98340547 32698,6950.16,96.106,574.145,569.905,0.0
55633.0,STARLINK-5498,PAYLOAD,2023-09-18 12:39:53,14.98339176,0.0002888,70.0004,321.6335,265.5259,94.557,9.0161e-05,9.83e-06,0.0,0 STARLINK-5498,1 55633U 23021F   23261.52770758  .00000983  00000-0  90161-4 0  9996,2 55633  70.0004 321.6335 0002888 265.5259  94.5570 14.98339176 33016,6950.165,96.106,574.037,570.022,0.0
55633.0,STARLINK-5498,PAYLOAD,2023-09-18 14:16:02,14.98334616,0.0002596,70.0003,321.4652,261.9371,98.1493,0.0002026,2.325e-05,0.0,0 STARLINK-5498,1 55633U 23021F   23261.59446855  .00002325  00000-0  20260-3 0  9995,2 55633  70.0003 321.4652 0002596 261.9371  98.1493 14.98334616 33025,6950.179,96.107,573.848,570.239,0.0
55633.0,STARLINK-5498,PAYLOAD,2023-09-19 09:29:38,14.98340339,0.0002965,70.0003,319.4456,270.5099,89.572,6.5214e-05,6.85e-06,0.0,0 STARLINK-5498,1 55633U 23021F   23262.39558104  .00000685  00000-0  65214-4 0  9991,2 55633  70.0003 319.4456 0002965 270.5099  89.5720 14.98340339 32842,6950.161,96.106,574.087,569.965,0.0
55633.0,STARLINK-5498,PAYLOAD,2023-09-20 03:07:07,14.98328098,0.0002806,70.0001,317.5936,264.4322,95.6517,-3.6136e-05,-5.24e-06,0.0,0 STARLINK-5498,1 55633U 23021F   23263.12994886 -.00000524  00000-0 -36136-4 0  9999,2 55633  70.0001 317.5936 0002806 264.4322  95.6517 14.98328098 32959,6950.199,96.107,574.014,570.114,0.0
55633.0,STARLINK-5498,PAYLOAD,2023-09-20 12:43:56,14.98321043,0.0003006,70.0,316.5844,266.9691,93.1124,-8.2593e-05,-1.078e-05,0.0,0 STARLINK-5498,1 55633U 23021F   23263.53051601 -.00001078  00000-0 -82593-4 0  9996,2 55633  70.0000 316.5844 0003006 266.9691  93.1124 14.98321043 33012,6950.221,96.108,574.175,569.996,0.0
55633.0,STARLINK-5498,PAYLOAD,2023-09-21 09:33:40,14.98331169,0.0003139,69.999,314.3956,266.0538,94.0262,3.0752e-05,2.74e-06,0.0,0 STARLINK-5498,1 55633U 23021F   23264.39838978  .00000274  00000-0  30752-4 0  9996,2 55633  69.9990 314.3956 0003139 266.0538  94.0262 14.98331169 33142,6950.189,96.107,574.236,569.873,0.0
55633.0,STARLINK-5498,PAYLOAD,2023-09-21 12:45:56,14.98335959,0.0003248,69.999,314.0591,270.0036,90.075,4.7165e-05,4.7e-06,0.0,0 STARLINK-5498,1 55633U 23021F   23264.53190627  .00000470  00000-0  47165-4 0  9998,2 55633  69.9990 314.0591 0003248 270.0036  90.0750 14.98335959 33467,6950.174,96.107,574.297,569.782,0.0
55633.0,STARLINK-5498,PAYLOAD,2023-09-21 20:46:36,14.9833766,0.0003229,69.9991,313.2175,269.0124,91.0665,2.3429e-05,1.87e-06,0.0,0 STARLINK-5498,1 55633U 23021F   23264.86570463  .00000187  00000-0  23429-4 0  9996,2 55633  69.9991 313.2175 0003229 269.0124  91.0665 14.98337660 33515,6950.169,96.107,574.278,569.79,0.0
55633.0,STARLINK-5498,PAYLOAD,2023-09-22 09:35:41,14.98327746,0.0003154,69.999,311.8704,266.6709,93.4089,0.00029057,3.376e-05,0.0,0 STARLINK-5498,1 55633U 23021F   23265.39979057  .00003376  00000-0  29057-3 0  9992,2 55633  69.9990 311.8704 0003154 266.6709  93.4089 14.98327746 33290,6950.2,96.107,574.257,569.873,0.0
55633.0,STARLINK-5498,PAYLOAD,2023-09-22 12:47:57,14.98331172,0.0003076,69.9991,311.5339,265.3742,94.7065,0.00032417,3.777e-05,0.0,0 STARLINK-5498,1 55633U 23021F   23265.53330821  .00003777  00000-0  32417-3 0  9997,2 55633  69.9991 311.5339 0003076 265.3742  94.7065 14.98331172 33610,6950.189,96.107,574.192,569.916,0.0
55633.0,STARLINK-5498,PAYLOAD,2023-09-22 20:48:38,14.98326566,0.0003015,69.9996,310.6924,264.442,95.6395,0.00028947,3.362e-05,0.0,0 STARLINK-5498,1 55633U 23021F   23265.86711272  .00003362  00000-0  28947-3 0  9999,2 55633  69.9996 310.6924 0003015 264.4420  95.6395 14.98326566 33663,6950.204,96.107,574.164,569.973,0.0
55633.0,STARLINK-5498,PAYLOAD,2023-09-23 12:50:00,14.98296533,0.0002935,69.9992,309.0093,272.2093,87.873,0.00094223,0.00011158,0.0,0 STARLINK-5498,1 55633U 23021F   23266.53472386  .00011158  00000-0  94223-3 0  9996,2 55633  69.9992 309.0093 0002935 272.2093  87.8730 14.98296533 33465,6950.296,96.109,574.201,570.121,0.0
55633.0,STARLINK-5498,PAYLOAD,2023-09-24 03:15:11,14.98336647,0.0003059,69.9993,307.4943,269.6149,90.4659,8.2415e-05,8.91e-06,0.0,0 STARLINK-5498,1 55633U 23021F   23267.13554588  .00000891  00000-0  82415-4 0  9991,2 55633  69.9993 307.4943 0003059 269.6149  90.4659 14.98336647 33553,6950.172,96.107,574.163,569.911,0.0
55633.0,STARLINK-5498,PAYLOAD,2023-09-24 12:51:59,14.98337565,0.0003087,69.9991,306.4839,268.2465,91.834,7.0377e-05,7.47e-06,0.0,0 STARLINK-5498,1 55633U 23021F   23267.53610364  .00000747  00000-0  70377-4 0  9994,2 55633  69.9991 306.4839 0003087 268.2465  91.8340 14.98337565 33913,6950.169,96.107,574.18,569.889,0.0
